{
  "links" : {
    "next" : "https://api.nasa.gov/neo/rest/v1/feed?start_date=2016-01-09&end_date=2016-01-09&detailed=true&api_key=t0TVs3DtDT2H8Oy2Zy8m2eVrNsAVKAexjcZXUckd",
    "prev" : "https://api.nasa.gov/neo/rest/v1/feed?start_date=2016-01-07&end_date=2016-01-07&detailed=true&api_key=t0TVs3DtDT2H8Oy2Zy8m2eVrNsAVKAexjcZXUckd",
    "self" : "https://api.nasa.gov/neo/rest/v1/feed?start_date=2016-01-08&end_date=2016-01-08&detailed=true&api_key=t0TVs3DtDT2H8Oy2Zy8m2eVrNsAVKAexjcZXUckd"
  },
  "element_count" : 8,
  "near_earth_objects" : {
    "2016-01-08" : [ {
      "links" : {
        "self" : "https://api.nasa.gov/neo/rest/v1/neo/3735487?api_key=t0TVs3DtDT2H8Oy2Zy8m2eVrNsAVKAexjcZXUckd"
      },
      "neo_reference_id" : "3735487",
      "name" : "(2015 WE2)",
      "nasa_jpl_url" : "http://ssd.jpl.nasa.gov/sbdb.cgi?sstr=3735487",
      "absolute_magnitude_h" : 22.4,
      "estimated_diameter" : {
        "kilometers" : {
          "estimated_diameter_min" : 0.0880146521,
          "estimated_diameter_max" : 0.1968067451
        },
        "meters" : {
          "estimated_diameter_min" : 88.0146520901,
          "estimated_diameter_max" : 196.8067450894
        },
        "miles" : {
          "estimated_diameter_min" : 0.0546897524,
          "estimated_diameter_max" : 0.122290004
        },
        "feet" : {
          "estimated_diameter_min" : 288.7619911632,
          "estimated_diameter_max" : 645.6914415591
        }
      },
      "is_potentially_hazardous_asteroid" : false,
      "close_approach_data" : [ {
        "close_approach_date" : "2016-01-08",
        "epoch_date_close_approach" : 1452240000000,
        "relative_velocity" : {
          "kilometers_per_second" : "9.6687742883",
          "kilometers_per_hour" : "34807.5874380547",
          "miles_per_hour" : "21628.0812056068"
        },
        "miss_distance" : {
          "astronomical" : "0.0580006473",
          "lunar" : "22.5622520447",
          "kilometers" : "8676773",
          "miles" : "5391497"
        },
        "orbiting_body" : "Earth"
      } ],
      "orbital_data" : {
        "orbit_id" : "33",
        "orbit_determination_date" : "2017-04-06 08:30:28",
        "orbit_uncertainty" : "4",
        "minimum_orbit_intersection" : ".0178545",
        "jupiter_tisserand_invariant" : "3.809",
        "epoch_osculation" : "2458000.5",
        "eccentricity" : ".5175037216785781",
        "semi_major_axis" : "1.867775119764528",
        "inclination" : "3.356828331225858",
        "ascending_node_longitude" : "28.41581894577278",
        "orbital_period" : "932.363590836876",
        "perihelion_distance" : ".901194544027733",
        "perihelion_argument" : "117.578297143436",
        "aphelion_distance" : "2.834355695501324",
        "perihelion_time" : "2458357.487828475428",
        "mean_anomaly" : "222.1614791544998",
        "mean_motion" : ".3861154634715725",
        "equinox" : "J2000"
      }
    }, {
      "links" : {
        "self" : "https://api.nasa.gov/neo/rest/v1/neo/3766293?api_key=t0TVs3DtDT2H8Oy2Zy8m2eVrNsAVKAexjcZXUckd"
      },
      "neo_reference_id" : "3766293",
      "name" : "(2017 AF3)",
      "nasa_jpl_url" : "http://ssd.jpl.nasa.gov/sbdb.cgi?sstr=3766293",
      "absolute_magnitude_h" : 25.3,
      "estimated_diameter" : {
        "kilometers" : {
          "estimated_diameter_min" : 0.0231502122,
          "estimated_diameter_max" : 0.0517654482
        },
        "meters" : {
          "estimated_diameter_min" : 23.150212221,
          "estimated_diameter_max" : 51.7654482198
        },
        "miles" : {
          "estimated_diameter_min" : 0.0143848705,
          "estimated_diameter_max" : 0.0321655483
        },
        "feet" : {
          "estimated_diameter_min" : 75.9521422633,
          "estimated_diameter_max" : 169.8341531374
        }
      },
      "is_potentially_hazardous_asteroid" : false,
      "close_approach_data" : [ {
        "close_approach_date" : "2016-01-08",
        "epoch_date_close_approach" : 1452240000000,
        "relative_velocity" : {
          "kilometers_per_second" : "13.348297173",
          "kilometers_per_hour" : "48053.8698229422",
          "miles_per_hour" : "29858.8059463721"
        },
        "miss_distance" : {
          "astronomical" : "0.1720941645",
          "lunar" : "66.9446334839",
          "kilometers" : "25744922",
          "miles" : "15997152"
        },
        "orbiting_body" : "Earth"
      } ],
      "orbital_data" : {
        "orbit_id" : "8",
        "orbit_determination_date" : "2017-04-06 08:21:13",
        "orbit_uncertainty" : "7",
        "minimum_orbit_intersection" : ".0318089",
        "jupiter_tisserand_invariant" : "5.938",
        "epoch_osculation" : "2458000.5",
        "eccentricity" : ".190683340231017",
        "semi_major_axis" : "1.020878068245652",
        "inclination" : "14.72679096147492",
        "ascending_node_longitude" : "287.1338979523816",
        "orbital_period" : "376.7551848052347",
        "perihelion_distance" : ".8262136282239828",
        "perihelion_argument" : "281.4470679710593",
        "aphelion_distance" : "1.215542508267321",
        "perihelion_time" : "2457845.152225255999",
        "mean_anomaly" : "148.439095633816",
        "mean_motion" : ".9555276596554435",
        "equinox" : "J2000"
      }
    } ]
  }
}